#cP2025  4  1  0  0  0.00000000      96 ORBIT IGb20 HLM  IGS
## 2360 172800.00000000   900.00000000 60766 0.0000000000000
+   32   G01G02G03G04G05G06G07G08G09G10G11G12G13G14G15G16G17
+        G18G19G20G21G22G23G24G25G26G27G28G29G30G31G32  0  0
+          0  0  0  0  0  0  0  0  0  0  0  0  0  0  0  0  0
+          0  0  0  0  0  0  0  0  0  0  0  0  0  0  0  0  0
+          0  0  0  0  0  0  0  0  0  0  0  0  0  0  0  0  0
++         2  2  2  2  2  2  2  2  2  2  2  2  2  2  2  2  2
++         2  2  2  2  2  2  2  3  2  2  2  2  2  2  2  0  0
++         0  0  0  0  0  0  0  0  0  0  0  0  0  0  0  0  0
++         0  0  0  0  0  0  0  0  0  0  0  0  0  0  0  0  0
++         0  0  0  0  0  0  0  0  0  0  0  0  0  0  0  0  0
%c G  cc GPS ccc cccc cccc cccc cccc ccccc ccccc ccccc ccccc
%c cc cc ccc ccc cccc cccc cccc cccc ccccc ccccc ccccc ccccc
%f  1.2500000  1.025000000  0.00000000000  0.000000000000000
%f  0.0000000  0.000000000  0.00000000000  0.000000000000000
%i    0    0    0    0      0      0      0      0         0
%i    0    0    0    0      0      0      0      0         0
/* FINAL ORBIT COMBINATION FROM WEIGHTED AVERAGE OF:        
/* cod emr esa gfz grg jgx jpl mit ngs sio                  
/* REFERENCED TO IGS TIME (IGST) AND TO WEIGHTED MEAN POLE: 
/* PCV:IGS20      OL/AL:FES2014b NONE     Y  ORB:CMB CLK:CMB
*  2025  4  1 19 30  0.00000000
PG01  20733.826282  13150.670852  10159.993432    202.734968  3  8  5  42       
PG02  20593.070822  17115.361501     63.533414   -205.096174  6  8  4  60       
PG03  13013.899093   7036.953648  21896.244644    681.860572  5  3  4  79       
PG04  24316.099855   1886.308317  10725.038908    548.306546  5  5  6  63       
PG05  -7843.173017 -18854.136459 -17124.529423   -206.123842  5  7  1  14       
PG06    682.677306 -17862.421371  19663.960786   -280.577583  5  6  6 100       
PG07  18378.174337   -653.613141 -18760.994001    -18.778101  6  6  5  98       
PG08  18015.654934   7974.387436 -18169.555143    503.501803  4  6  5 106       
PG09  25638.453163  -6984.224535   1014.720363    617.875468  5  3  5  92       
PG10 -10325.123262  23493.391292  -5903.645103   -375.300368  4  4  6  83       
PG11  -8867.247973 -21973.758209  12096.276444   -733.612570  5  9  6 111       
PG12 -12816.627599  -8622.115145  21321.162495   -577.971009  5  6  5 110       
PG13  -8276.055338 -13709.195710 -21467.863318    699.786001  6  6  4  79       
PG14  12715.396440 -21402.584127  -8830.436733    623.872694  4  5  6  73       
PG15 -19040.925858  -5918.866776 -18135.388061    280.618054  7  5  5  81       
PG16   1647.116081  22943.173314 -13244.161990    -17.070022  5  8  4  91       
PG17  19722.030023 -13113.695878  12633.965608    349.434438  5  4  3  76       
PG18 -16798.317857   2630.714610 -20435.039636   -641.213350  5  6  3  98       
PG19  10522.080562 -15045.878108  18887.857754    614.391346  6  6  1 104       
PG20  -1809.799449 -25997.985832  -5341.766491    365.296642  4  6  4  57       
PG21  17850.370678  19606.927004  -5521.251372     94.418171  9  9  5  69       
PG22   9699.209205 -24871.289635   -966.378187   -101.489925  5  4  5  74       
PG23 -15116.536864  12343.086360 -17856.685539    451.780210  5  5  4  87       
PG24 -22114.102512 -14586.052613   3397.678942   -429.266170  6  6  8  89       
PG25 -16045.232235   4984.003645  20148.128134    491.554028  7  7  9  87       
PG26  -2210.562388  26116.232216  -2911.049847   -163.580169  7  6  4  77       
PG27   5649.495966  14434.601800 -21908.200432    -28.612792  4  7  5 101       
PG28  -3333.933702  16489.733022  20543.934197   -589.652180  5  7  4  68       
PG29 -26277.766727   4052.453417   1483.001585   -522.401301  1  7  6  51       
PG30   9969.985719 -12137.003438 -21238.906207   -180.270507  5  7  6 101       
PG31   4743.402604  20700.563752  15477.651354   -211.479800  5  6  5  58       
PG32 -14722.233924  15579.911162  15795.149293   -487.871846  4  3  4  75       
*  2025  4  1 19 45  0.00000000
PG01  21247.915270  14054.569936   7555.548817    202.750830  4  9  5  20       
PG02  20304.742766  17158.027114  -2773.516789   -205.087578  6  9  4  43       
PG03  12409.528963   9465.040748  21339.932198    681.863771  5  3  4  67       
PG04  23057.143187   2421.708379  13120.982262    548.311088  6  5  6  41       
PG05  -7383.012054 -20617.688423 -15158.013896   -206.124885  4  7  2  42       
PG06   2391.304807 -16318.397246  20852.325770   -280.597342  5  5  6 108       
PG07  19859.634549    915.607916 -17263.476638    -18.779968  6  6  5  96       
PG08  16056.453672   8791.842939 -19546.224193    503.506198  4  6  6 101       
PG09  25446.001415  -6655.802876   3848.965126    617.886131  5  3  5  89       
PG10 -10316.116946  22604.284108  -8668.574893   -375.312637  4  4  6  77       
PG11  -7677.893669 -21031.301109  14372.363172   -733.608610  5  9  6 112       
PG12 -12049.430912 -10964.812790  20694.561431   -577.972340  6  6  5 109       
PG13  -5880.615582 -14110.767271 -21975.012527    699.786763  6  6  4  98       
PG14  12710.705056 -20197.042189 -11333.150881    623.878123  4  4  6  74       
PG15 -17258.203981  -6961.552472 -19524.791639    280.622040  7  6  4  73       
PG16   1013.202817  24149.944675 -10844.372925    -17.061775  5  7  5  50       
PG17  20975.829823 -13228.118685  10200.410294    349.417275  4  4  3  70       
PG18 -18370.832884    999.016142 -19211.898298   -641.210007  5  6  3  92       
PG19  12623.415003 -15297.326887  17304.221111    614.394881  6  5  2  94       
PG20  -1539.308740 -26446.766103  -2545.323668    365.296876  4  6  4  69       
PG21  17113.728992  19253.826415  -8169.987643     94.415816  9  9  6  63       
PG22   9828.583163 -24503.098267  -3784.612303   -101.490899  6  4  6  60       
PG23 -14804.497766  10219.208140 -19409.440136    451.786466  5  5  3  80       
PG24 -22156.680668 -14994.309338    630.267938   -429.260419  7  6  8  85       
PG25 -15645.838779   2582.341353  20908.833417    491.553147  8  7  9  87       
PG26  -2600.181183  26219.911873   -103.112452   -163.597766  6  6  4  77       
PG27   3323.705017  15159.703051 -21855.728506    -28.612085  4  7  5  89       
PG28  -5183.529173  14964.847100  21314.115777   -589.658211  5  7  4  69       
PG29 -26000.893119   3755.665787   4316.929689   -522.397603  1  7  5  52       
PG30  11795.346721 -10467.610439 -21216.500531   -180.262195  5  7  5 101       
PG31   3215.051231  19498.908551  17324.764545   -211.478596  5  6  5  77       
PG32 -16355.430345  15905.758659  13672.515040   -487.863647  5  3  4  69       
*  2025  4  1 20  0  0.00000000
PG01  21590.955600  14720.740788   4821.241007    202.766734  4  9  5  42       
PG02  19755.412650  17039.375520  -5563.674922   -205.079171  7  9  5  55       
PG03  11957.324922  11837.978125  20411.333100    681.866955  4  3  4  65       
PG04  21583.754980   3105.743572  15293.113846    548.315640  6  5  6  55       
PG05  -7046.389707 -22169.980647 -12932.802899   -206.125510  5  7  3  72       
PG06   4270.424267 -14800.063834  21682.940598   -280.617101  5  5  6 106       
PG07  21268.339079   2282.682639 -15461.009889    -18.781517  6  5  6  75       
PG08  14013.961213   9762.332886 -20594.726604    503.510573  5  6  6 103       
PG09  24977.263660  -6198.154103   6617.118731    617.896800  4  3  5  96       
PG10 -10305.610542  21410.703890 -11280.114559   -375.324846  4  4  6  65       
PG11  -6259.571158 -19990.158364  16402.356341   -733.604598  5  8  6 100       
PG12 -11425.506816 -13252.410320  19702.798669   -577.974183  6  6  5 107       
PG13  -3473.446437 -14651.231414 -22112.814774    699.787416  6  5  4  95       
PG14  12714.134358 -18724.652757 -13637.666204    623.883561  4  4  6  81       
PG15 -15412.957288  -8158.108955 -20593.364004    280.625755  8  6  4  90       
PG16    508.900121  25116.064803  -8256.555821    -17.053725  5  7  5  77       
PG17  21954.697564 -13324.671280   7596.258401    349.400708  4  4  3  92       
PG18 -19909.201341   -441.072287 -17659.650282   -641.206652  5  6  4  83       
PG19  14518.729516 -15606.468242  15414.649081    614.398291  6  6  2  96       
PG20  -1288.012534 -26590.597318    294.678374    365.296809  4  6  4  88       
PG21  16116.577593  18782.496108 -10685.169205     94.413624  9  9  6  96       
PG22   9900.940805 -23836.558967  -6538.469482   -101.491889  6  4  5  75       
PG23 -14588.565597   7926.594248 -20624.558878    451.792715  5  5  2  94       
PG24 -21963.197489 -15224.382459  -2147.793568   -429.254658  7  5  8  66       
PG25 -15355.280236    100.306817  21296.556729    491.552219  8  7  9 105       
PG26  -2961.209262  26022.944074   2706.621542   -163.615518  6  5  4  83       
PG27   1059.269384  15997.625944 -21437.399993    -28.611391  4  6  5  99       
PG28  -7162.688409  13497.985635  21717.288372   -589.664227  5  6  4  83       
PG29 -25436.775673   3355.504662   7077.072226   -522.394117  1  7  5  87       
PG30  13677.862951  -8904.038255 -20823.854743   -180.253848  5  7  4  95       
PG31   1482.209660  18248.725422  18864.173844   -211.477418  5  5  5  90       
PG32 -17735.920880  16225.194741  11315.587265   -487.855465  5  3  4  67       
EOF
